NORAD_CAT_ID,OBJECT_NAME,OBJECT_TYPE,EPOCH,MEAN_MOTION,ECCENTRICITY,INCLINATION,RA_OF_ASC_NODE,ARG_OF_PERICENTER,MEAN_ANOMALY,BSTAR,MEAN_MOTION_DOT,MEAN_MOTION_DDOT,TLE_LINE0,TLE_LINE1,TLE_LINE2,SEMIMAJOR_AXIS,PERIOD,APOGEE,PERIGEE,DECAYED
50168.0,STARLINK-3296,PAYLOAD,2022-11-24 04:21:13,15.08849404,0.0003011,53.2175,242.9035,29.8655,330.2508,2.2978e-06,-2.52e-06,0.0,0 STARLINK-3296,1 50168U 21125N   22328.18141063 -.00000252  00000-0  22978-5 0  9995,2 50168  53.2175 242.9035 0003011  29.8655 330.2508 15.08849404 52113,6917.852,95.437,541.8,537.634,0.0
50168.0,STARLINK-3296,PAYLOAD,2022-11-25 04:12:01,15.0883222,0.0002918999999999,53.2177,238.4429,27.9996,332.1153,3.0857e-05,2.02e-06,0.0,0 STARLINK-3296,1 50168U 21125N   22329.17502080  .00000202  00000-0  30857-4 0  9993,2 50168  53.2177 238.4429 0002919  27.9996 332.1153 15.08832220 52266,6917.904,95.438,541.789,537.75,0.0
50168.0,STARLINK-3296,PAYLOAD,2022-11-26 00:52:01,15.08851308,0.0003225,53.2169,234.5781,35.2733,324.8472,-3.0664e-05,-7.77e-06,0.0,0 STARLINK-3296,1 50168U 21125N   22330.03613282 -.00000777  00000-0 -30664-4 0  9992,2 50168  53.2169 234.5781 0003225  35.2733 324.8472 15.08851308 52391,6917.846,95.437,541.942,537.48,0.0
50168.0,STARLINK-3296,PAYLOAD,2022-11-26 10:24:20,15.08849315,0.000301,53.2171,232.7938,31.7364,328.3809,3.6427e-05,2.91e-06,0.0,0 STARLINK-3296,1 50168U 21125N   22330.43357007  .00000291  00000-0  36427-4 0  9998,2 50168  53.2171 232.7938 0003010  31.7364 328.3809 15.08849315 55550,6917.852,95.437,541.799,537.635,0.0
50168.0,STARLINK-3296,PAYLOAD,2022-11-26 18:21:16,15.08845586,0.0002989,53.2171,231.3068,32.7501,327.3676,0.00010824,1.435e-05,0.0,0 STARLINK-3296,1 50168U 21125N   22330.76476944  .00001435  00000-0  10824-3 0  9999,2 50168  53.2171 231.3068 0002989  32.7501 327.3676 15.08845586 55600,6917.863,95.437,541.7959999999998,537.661,0.0
50168.0,STARLINK-3296,PAYLOAD,2022-11-27 02:18:11,15.08842912,0.0002979,53.2177,229.8192,29.9126,330.2035,7.1538e-05,8.5e-06,0.0,0 STARLINK-3296,1 50168U 21125N   22331.09597078  .00000850  00000-0  71538-4 0  9998,2 50168  53.2177 229.8192 0002979  29.9126 330.2035 15.08842912 52559,6917.871,95.437,541.797,537.6759999999998,0.0
50168.0,STARLINK-3296,PAYLOAD,2022-11-27 18:12:04,15.08836943,0.0003193,53.2181,226.8456,32.1873,327.9314,-0.00010665,-1.986e-05,0.0,0 STARLINK-3296,1 50168U 21125N   22331.75838327 -.00001986  00000-0 -10665-3 0  9992,2 50168  53.2181 226.8456 0003193  32.1873 327.9314 15.08836943 52659,6917.89,95.438,541.964,537.5459999999998,0.0
50168.0,STARLINK-3296,PAYLOAD,2022-11-28 02:08:59,15.08842308,0.0003118,53.2178,225.3588,32.4861,327.6323,-4.0735e-05,-9.37e-06,0.0,0 STARLINK-3296,1 50168U 21125N   22332.08957778 -.00000937  00000-0 -40735-4 0  9998,2 50168  53.2178 225.3588 0003118  32.4861 327.6323 15.08842308 52707,6917.873000000001,95.437,541.895,537.581,0.0
50168.0,STARLINK-3296,PAYLOAD,2022-11-28 10:05:55,15.08838586,0.0003127,53.2179,223.8721,33.1191,326.9996,-6.233100000000001e-05,-1.281e-05,0.0,0 STARLINK-3296,1 50168U 21125N   22332.42078076 -.00001281  00000-0 -62331-4 0  9990,2 50168  53.2179 223.8721 0003127  33.1191 326.9996 15.08838586 55854,6917.885,95.438,541.913,537.586,0.0
50168.0,STARLINK-3296,PAYLOAD,2022-11-29 09:56:42,15.0883769,0.0003073,53.2178,219.4118,33.4539,326.6647,0.00010663,1.409e-05,0.0,0 STARLINK-3296,1 50168U 21125N   22333.41437750  .00001409  00000-0  10663-3 0  9998,2 50168  53.2178 219.4118 0003073  33.4539 326.6647 15.08837690 52901,6917.887,95.438,541.878,537.627,0.0
50168.0,STARLINK-3296,PAYLOAD,2022-11-29 22:39:47,15.08837386,0.0003091,53.2179,217.0328,34.4439,325.6753,5.5028e-05,5.87e-06,0.0,0 STARLINK-3296,1 50168U 21125N   22333.94430106  .00000587  00000-0  55028-4 0  9995,2 50168  53.2179 217.0328 0003091  34.4439 325.6753 15.08837386 56081,6917.888000000001,95.438,541.8919999999998,537.615,0.0
50168.0,STARLINK-3296,PAYLOAD,2022-12-01 01:41:21,15.0883406,0.0003072,53.2179,211.9771,33.7335,326.3852,2.5498e-05,1.17e-06,0.0,0 STARLINK-3296,1 50168U 21125N   22335.07038551  .00000117  00000-0  25498-4 0  9996,2 50168  53.2179 211.9771 0003072  33.7335 326.3852 15.08834060 53151,6917.899,95.438,541.889,537.638,0.0
50168.0,STARLINK-3296,PAYLOAD,2022-12-01 12:49:02,15.08839331,0.0003068,53.2172,209.8968,32.0399,328.0779,4.881e-05,4.88e-06,0.0,0 STARLINK-3296,1 50168U 21125N   22335.53406168  .00000488  00000-0  48810-4 0  9994,2 50168  53.2172 209.8968 0003068  32.0399 328.0779 15.08839331 56320,6917.882,95.438,541.87,537.625,0.0
50168.0,STARLINK-3296,PAYLOAD,2022-12-02 01:32:07,15.08847617,0.0003122,53.2168,207.5175,33.4758,326.6431,9.9765e-05,1.3e-05,0.0,0 STARLINK-3296,1 50168U 21125N   22336.06397405  .00001300  00000-0  99765-4 0  9995,2 50168  53.2168 207.5175 0003122  33.4758 326.6431 15.08847617 53305,6917.857,95.437,541.882,537.562,0.0
50168.0,STARLINK-3296,PAYLOAD,2022-12-02 11:04:26,15.08838964,0.0003157,53.2163,205.7328,34.8981,325.2218,0.00011696,1.573e-05,0.0,0 STARLINK-3296,1 50168U 21125N   22336.46141698  .00001573  00000-0  11696-3 0  9998,2 50168  53.2163 205.7328 0003157  34.8981 325.2218 15.08838964 53360,6917.884,95.438,541.933,537.565,0.0
50168.0,STARLINK-3296,PAYLOAD,2022-12-03 01:22:56,15.08824567,0.0003171,53.2166,203.057,35.8791,324.2414,-2.1837e-05,-6.36e-06,0.0,0 STARLINK-3296,1 50168U 21125N   22337.05759325 -.00000636  00000-0 -21837-4 0  9996,2 50168  53.2166 203.0570 0003171  35.8791 324.2414 15.08824567 53450,6917.928000000001,95.439,541.986,537.599,0.0
50168.0,STARLINK-3296,PAYLOAD,2022-12-03 07:44:28,15.08826825,0.0003188,53.2166,201.8677,36.4748,323.6461,-1.4051e-05,-5.12e-06,0.0,0 STARLINK-3296,1 50168U 21125N   22337.32255372 -.00000512  00000-0 -14051-4 0  9992,2 50168  53.2166 201.8677 0003188  36.4748 323.6461 15.08826825 56593,6917.920999999999,95.438,541.991,537.58,0.0
50168.0,STARLINK-3296,PAYLOAD,2022-12-03 20:27:33,15.08835318,0.0002753,53.2172,199.4883,38.9937,321.1253,-2.3925e-05,-6.69e-06,0.0,0 STARLINK-3296,1 50168U 21125N   22337.85246929 -.00000669  00000-0 -23925-4 0  9991,2 50168  53.2172 199.4883 0002753  38.9937 321.1253 15.08835318 53579,6917.895,95.438,541.664,537.855,0.0
50168.0,STARLINK-3296,PAYLOAD,2022-12-04 01:13:42,15.08838474,0.0003179,53.2171,198.5963,36.0489,324.0717,-2.3975e-05,-6.7e-06,0.0,0 STARLINK-3296,1 50168U 21125N   22338.05118902 -.00000670  00000-0 -23975-4 0  9990,2 50168  53.2171 198.5963 0003179  36.0489 324.0717 15.08838474 56702,6917.885,95.438,541.9490000000002,537.5509999999998,0.0
50168.0,STARLINK-3296,PAYLOAD,2022-12-05 01:04:29,15.08840038,0.0003203,53.2176,194.1364,36.7491,323.3721,0.00015453,2.172e-05,0.0,0 STARLINK-3296,1 50168U 21125N   22339.04478433  .00002172  00000-0  15453-3 0  9996,2 50168  53.2176 194.1364 0003203  36.7491 323.3721 15.08840038 53750,6917.88,95.438,541.961,537.529,0.0
50168.0,STARLINK-3296,PAYLOAD,2022-12-05 07:26:02,15.08831783,0.0003259,53.2181,192.9458,35.3658,324.755,5.6764e-05,6.15e-06,0.0,0 STARLINK-3296,1 50168U 21125N   22339.30975358  .00000615  00000-0  56764-4 0  9994,2 50168  53.2181 192.9458 0003259  35.3658 324.7550 15.08831783 53793,6917.906,95.438,542.025,537.516,0.0
50168.0,STARLINK-3296,PAYLOAD,2022-12-05 20:09:07,15.08853486,0.0003439,53.2182,190.5661,34.5356,325.5859,-0.00014562,-2.607e-05,0.0,0 STARLINK-3296,1 50168U 21125N   22339.83967023 -.00002607  00000-0 -14562-3 0  9996,2 50168  53.2182 190.5661 0003439  34.5356 325.5859 15.08853486 53874,6917.839,95.437,542.0830000000002,537.325,0.0
50168.0,STARLINK-3296,PAYLOAD,2022-12-05 23:19:53,15.08837911,0.0003384,53.2178,189.9718,37.8996,322.2233,7.0924e-05,8.400000000000001e-06,0.0,0 STARLINK-3296,1 50168U 21125N   22339.97215156  .00000840  00000-0  70924-4 0  9994,2 50168  53.2178 189.9718 0003384  37.8996 322.2233 15.08837911 53896,6917.887,95.438,542.0930000000002,537.411,0.0
50168.0,STARLINK-3296,PAYLOAD,2022-12-06 13:38:22,15.08841508,0.0003241,53.217,187.2957,41.2073,318.9163,2.7777e-05,1.53e-06,0.0,0 STARLINK-3296,1 50168U 21125N   22340.56831133  .00000153  00000-0  27777-4 0  9995,2 50168  53.2170 187.2957 0003241  41.2073 318.9163 15.08841508 57087,6917.876,95.437,541.9830000000002,537.499,0.0
50168.0,STARLINK-3296,PAYLOAD,2022-12-06 19:59:54,15.08843457,0.0003317,53.217,186.1062,40.7453,319.3787,-5.2799e-06,-3.73e-06,0.0,0 STARLINK-3296,1 50168U 21125N   22340.83327085 -.00000373  00000-0 -52799-5 0  9990,2 50168  53.2170 186.1062 0003317  40.7453 319.3787 15.08843457 57129,6917.87,95.437,542.029,537.44,0.0
50168.0,STARLINK-3296,PAYLOAD,2022-12-07 00:46:04,15.08828908,0.000322,53.2178,185.21400000000003,43.0998,317.0246,3.4329e-05,2.58e-06,0.0,0 STARLINK-3296,1 50168U 21125N   22341.03199952  .00000258  00000-0  34329-4 0  9991,2 50168  53.2178 185.2140 0003220  43.0998 317.0246 15.08828908 54055,6917.9140000000025,95.438,542.007,537.552,0.0
50168.0,STARLINK-3296,PAYLOAD,2022-12-07 07:07:36,15.08840358,0.0003245,53.2174,184.0253,40.3023,319.8209,-4.4675e-05,-1e-05,0.0,0 STARLINK-3296,1 50168U 21125N   22341.29695521 -.00001000  00000-0 -44675-4 0  9995,2 50168  53.2174 184.0253 0003245  40.3023 319.8209 15.08840358 54095,6917.879,95.438,541.989,537.499,0.0
50168.0,STARLINK-3296,PAYLOAD,2022-12-07 16:39:55,15.08834989,0.0003168,53.2172,182.2412,40.5748,319.5479,4.788100000000001e-05,4.73e-06,0.0,0 STARLINK-3296,1 50168U 21125N   22341.69439762  .00000473  00000-0  47881-4 0  9995,2 50168  53.2172 182.2412 0003168  40.5748 319.5479 15.08834989 57250,6917.896,95.438,541.952,537.569,0.0
50168.0,STARLINK-3296,PAYLOAD,2022-12-08 13:19:56,15.08840859,0.0003208999999999,53.2169,178.3756,42.7915,317.3327,0.00014293,1.987e-05,0.0,0 STARLINK-3296,1 50168U 21125N   22342.55551142  .00001987  00000-0  14293-3 0  9999,2 50168  53.2169 178.3756 0003209  42.7915 317.3327 15.08840859 57384,6917.878000000002,95.438,541.9630000000002,537.523,0.0
